{"features":[{"type":"Feature","geometry":{"coordinates":[[[-98.724387,40.689772],[-98.723948,40.350391],[-98.27809,40.350347],[-98.278103,40.698291],[-98.282851,40.698284],[-98.72143,40.698903],[-98.724387,40.689772]]],"type":"Polygon"},"properties":{"AWATER":"2513742","COUNTYNS":"00835823","LSAD":"06","STATE_NAME":"Nebraska","NAMELSAD":"Adams County","STUSPS":"NE","GEOIDFQ":"0500000US31001","COUNTYFP":"001","STATEFP":"31","GEOID":"31001","ALAND":"1458836771","NAME":"Adams"}},{"type":"Feature","geometry":{"coordinates":[[[-98.300235,42.436913],[-98.300592,42.088853],[-98.295421,42.070495],[-98.295602,41.914954],[-97.833288,41.916286],[-97.834536,42.08975],[-97.834431,42.437684],[-98.300235,42.436913]]],"type":"Polygon"},"properties":{"AWATER":"3715966","COUNTYNS":"00835824","LSAD":"06","STATE_NAME":"Nebraska","NAMELSAD":"Antelope County","STUSPS":"NE","GEOIDFQ":"0500000US31003","COUNTYFP":"003","STATEFP":"31","GEOID":"31003","ALAND":"2220026333","NAME":"Antelope"}},{"type":"Feature","geometry":{"coordinates":[[[-101.985523,41.74229],[-101.984567,41.395012],[-101.40726,41.395416],[-101.406466,41.7432],[-101.42592,41.743059],[-101.985523,41.74229]]],"type":"Polygon"},"properties":{"AWATER":"7644718","COUNTYNS":"00835825","LSAD":"06","STATE_NAME":"Nebraska","NAMELSAD":"Arthur County","STUSPS":"NE","GEOIDFQ":"0500000US31005","COUNTYFP":"005","STATEFP":"31","GEOID":"31005","ALAND":"1852234562","NAME":"Arthur"}},{"type":"Feature","geometry":{"coordinates":[[[-104.052825094979,41.6978228532141],[-104.052735,41.613676],[-104.052634571633,41.5642757795737],[-104.052287,41.393307],[-104.052287134121,41.3932140001934],[-103.37762,41.394633],[-103.369005,41.437766],[-103.370391,41.69921],[-104.052825094979,41.6978228532141]]],"type":"Polygon"},"properties":{"AWATER":"392060","COUNTYNS":"00835826","LSAD":"06","STATE_NAME":"Nebraska","NAMELSAD":"Banner County","STUSPS":"NE","GEOIDFQ":"0500000US31007","COUNTYFP":"007","STATEFP":"31","GEOID":"31007","ALAND":"1932231569","NAME":"Banner"}},{"type":"Feature","geometry":{"coordinates":[[[-100.267622,42.086147],[-100.265474,41.739856],[-100.251224,41.739817],[-99.686834,41.740326],[-99.686959,42.086075],[-100.167605,42.085848],[-100.267622,42.086147]]],"type":"Polygon"},"properties":{"AWATER":"9415061","COUNTYNS":"00835827","LSAD":"06","STATE_NAME":"Nebraska","NAMELSAD":"Blaine County","STUSPS":"NE","GEOIDFQ":"0500000US31009","COUNTYFP":"009","STATEFP":"31","GEOID":"31009","ALAND":"1840709884","NAME":"Blaine"}},{"type":"Feature","geometry":{"coordinates":[[[-98.295602,41.914954],[-98.29576,41.741178],[-98.290992,41.719787],[-98.291344,41.480727],[-98.099523,41.480777],[-98.041328,41.510534],[-97.829846,41.526174],[-97.830493,41.742238],[-97.833288,41.916286],[-98.295602,41.914954]]],"type":"Polygon"},"properties":{"AWATER":"1780542","COUNTYNS":"00835828","LSAD":"06","STATE_NAME":"Nebraska","NAMELSAD":"Boone County","STUSPS":"NE","GEOIDFQ":"0500000US31011","COUNTYFP":"011","STATEFP":"31","GEOID":"31011","ALAND":"1778104027","NAME":"Boone"}},{"type":"Feature","geometry":{"coordinates":[[[-103.444278,42.437275],[-103.444108,42.090708],[-103.401591,42.090411],[-103.401522,42.003537],[-103.363337,42.00293],[-102.697835,42.004843],[-102.742269,42.092388],[-102.749611,42.430454],[-102.773366,42.439922],[-103.444278,42.437275]]],"type":"Polygon"},"properties":{"AWATER":"7115630","COUNTYNS":"00835991","LSAD":"06","STATE_NAME":"Nebraska","NAMELSAD":"Box Butte County","STUSPS":"NE","GEOIDFQ":"0500000US31013","COUNTYFP":"013","STATEFP":"31","GEOID":"31013","ALAND":"2784653173","NAME":"Box Butte"}},{"type":"Feature","geometry":{"coordinates":[[[-99.2544550123166,42.9982209267867],[-99.257039,42.804296],[-98.982527,42.896436],[-98.892846,42.845792],[-98.656835,42.809021],[-98.58376,42.779736],[-98.305149,42.761207],[-98.310239,42.784618],[-98.3081868164513,42.8864892074256],[-98.386445,42.918407],[-98.434503,42.929227],[-98.478919,42.963539],[-98.49855,42.99856],[-98.847992,42.998255],[-99.2544550123166,42.9982209267867]]],"type":"Polygon"},"properties":{"AWATER":"13360589","COUNTYNS":"00835829","LSAD":"06","STATE_NAME":"Nebraska","NAMELSAD":"Boyd County","STUSPS":"NE","GEOIDFQ":"0500000US31015","COUNTYFP":"015","STATEFP":"31","GEOID":"31015","ALAND":"1396957277","NAME":"Boyd"}},{"type":"Feature","geometry":{"coordinates":[[[-100.198478,42.846102],[-100.18327,42.781005],[-100.183167,42.43343],[-100.167605,42.085848],[-99.686959,42.086075],[-99.662379,42.086009],[-99.663752,42.434609],[-99.677684,42.730903],[-100.11334,42.799683],[-100.198478,42.846102]]],"type":"Polygon"},"properties":{"AWATER":"9687309","COUNTYNS":"00835830","LSAD":"06","STATE_NAME":"Nebraska","NAMELSAD":"Brown County","STUSPS":"NE","GEOIDFQ":"0500000US31017","COUNTYFP":"017","STATEFP":"31","GEOID":"31017","ALAND":"3163423492","NAME":"Brown"}},{"type":"Feature","geometry":{"coordinates":[[[-99.425986,41.046471],[-99.426353,40.699772],[-99.417316,40.670825],[-99.380544,40.66486],[-99.179248,40.660541],[-98.906096,40.652722],[-98.724387,40.689772],[-98.72143,40.698903],[-98.721975,41.046674],[-98.748526,41.04664],[-99.207564,41.047003],[-99.425986,41.046471]]],"type":"Polygon"},"properties":{"AWATER":"18526719","COUNTYNS":"00835831","LSAD":"06","STATE_NAME":"Nebraska","NAMELSAD":"Buffalo County","STUSPS":"NE","GEOIDFQ":"0500000US31019","COUNTYFP":"019","STATEFP":"31","GEOID":"31019","ALAND":"2507745799","NAME":"Buffalo"}},{"type":"Feature","geometry":{"coordinates":[[[-96.554866,42.015875],[-96.555172,41.742018],[-96.444217,41.741775],[-96.444785,41.683633],[-96.134276,41.68273],[-96.1079378717465,41.6765089897621],[-96.0876,41.72218],[-96.064537,41.793002],[-96.107911,41.840339],[-96.1268212534654,41.8660952477016],[-96.159098,41.910057],[-96.132537,41.974625],[-96.223611,42.022652],[-96.272877,42.047238],[-96.309645,42.015187],[-96.554866,42.015875]]],"type":"Polygon"},"properties":{"AWATER":"14184088","COUNTYNS":"00835832","LSAD":"06","STATE_NAME":"Nebraska","NAMELSAD":"Burt County","STUSPS":"NE","GEOIDFQ":"0500000US31021","COUNTYFP":"021","STATEFP":"31","GEOID":"31021","ALAND":"1273203510","NAME":"Burt"}},{"type":"Feature","geometry":{"coordinates":[[[-97.368186,41.396416],[-97.368061,41.163014],[-97.368118,41.046947],[-96.91094,41.046116],[-96.908507,41.046091],[-96.905862,41.453389],[-96.90591,41.456436],[-97.178464,41.376816],[-97.253519,41.384212],[-97.287761,41.400638],[-97.368186,41.396416]]],"type":"Polygon"},"properties":{"AWATER":"15598406","COUNTYNS":"00835833","LSAD":"06","STATE_NAME":"Nebraska","NAMELSAD":"Butler County","STUSPS":"NE","GEOIDFQ":"0500000US31023","COUNTYFP":"023","STATEFP":"31","GEOID":"31023","ALAND":"1514595610","NAME":"Butler"}},{"type":"Feature","geometry":{"coordinates":[[[-96.463861,41.016069],[-96.463764,40.78396],[-95.8342438167144,40.7837843870431],[-95.841309,40.845604],[-95.810709,40.886681],[-95.8187272785699,40.8979480664065],[-95.837774,40.924712],[-95.828329,40.972378],[-95.865878,41.017403],[-95.8647847640853,41.0528455046135],[-95.978778,41.053362],[-96.005191,41.060624],[-96.056256,41.065356],[-96.218939,40.994308],[-96.319191,41.044998],[-96.349471,41.015211],[-96.463861,41.016069]]],"type":"Polygon"},"properties":{"AWATER":"23270413","COUNTYNS":"00835834","LSAD":"06","STATE_NAME":"Nebraska","NAMELSAD":"Cass County","STUSPS":"NE","GEOIDFQ":"0500000US31025","COUNTYFP":"025","STATEFP":"31","GEOID":"31025","ALAND":"1442381477","NAME":"Cass"}},{"type":"Feature","geometry":{"coordinates":[[[-97.484916876342,42.8500032148679],[-97.485298,42.438578],[-97.36759,42.438775],[-97.367724,42.351861],[-97.017789,42.351347],[-97.0156311127472,42.7565254624882],[-97.02485,42.76243],[-97.131331,42.771929],[-97.1650703923738,42.7916166414677],[-97.213957,42.820143],[-97.237868,42.853139],[-97.302075,42.86566],[-97.341181,42.855882],[-97.417066,42.865918],[-97.452177,42.846048],[-97.484916876342,42.8500032148679]]],"type":"Polygon"},"properties":{"AWATER":"14653906","COUNTYNS":"00835835","LSAD":"06","STATE_NAME":"Nebraska","NAMELSAD":"Cedar County","STUSPS":"NE","GEOIDFQ":"0500000US31027","COUNTYFP":"027","STATEFP":"31","GEOID":"31027","ALAND":"1917080039","NAME":"Cedar"}},{"type":"Feature","geometry":{"coordinates":[[[-102.051304798597,40.440007993377],[-102.051308551844,40.3492213568722],[-101.342788,40.350444],[-101.345365,40.698093],[-102.051294151579,40.697546832389],[-102.051304798597,40.440007993377]]],"type":"Polygon"},"properties":{"AWATER":"7962797","COUNTYNS":"00835836","LSAD":"06","STATE_NAME":"Nebraska","NAMELSAD":"Chase County","STUSPS":"NE","GEOIDFQ":"0500000US31029","COUNTYFP":"029","STATEFP":"31","GEOID":"31029","ALAND":"2316548815","NAME":"Chase"}},{"type":"Feature","geometry":{"coordinates":[[[-102.082486319192,42.9991405485193],[-102.082548043072,42.99914064039],[-102.066905,42.78549],[-102.038169,42.443307],[-102.006428,42.096227],[-101.426557,42.092194],[-100.846129,42.088166],[-100.267622,42.086147],[-100.167605,42.085848],[-100.183167,42.43343],[-100.18327,42.781005],[-100.198478,42.846102],[-100.198413799775,42.9979768839694],[-101.000429,42.99753],[-101.228013397794,42.9978687396475],[-102.082486319192,42.9991405485193]]],"type":"Polygon"},"properties":{"AWATER":"128192826","COUNTYNS":"00835837","LSAD":"06","STATE_NAME":"Nebraska","NAMELSAD":"Cherry County","STUSPS":"NE","GEOIDFQ":"0500000US31031","COUNTYFP":"031","STATEFP":"31","GEOID":"31031","ALAND":"15436585718","NAME":"Cherry"}},{"type":"Feature","geometry":{"coordinates":[[[-103.375691,41.047623],[-103.38249165189,41.001926146621],[-103.076536,41.002253],[-102.653464137269,41.0022253241436],[-102.621033024452,41.0022232026156],[-102.610213,41.048207],[-102.610413,41.221614],[-102.609386,41.395115],[-102.636525,41.438809],[-103.369005,41.437766],[-103.37762,41.394633],[-103.375691,41.047623]]],"type":"Polygon"},"properties":{"AWATER":"292549","COUNTYNS":"00835838","LSAD":"06","STATE_NAME":"Nebraska","NAMELSAD":"Cheyenne County","STUSPS":"NE","GEOIDFQ":"0500000US31033","COUNTYFP":"033","STATEFP":"31","GEOID":"31033","ALAND":"3097645443","NAME":"Cheyenne"}},{"type":"Feature","geometry":{"coordinates":[[[-98.278103,40.698291],[-98.27809,40.350347],[-98.273571,40.350359],[-97.824114,40.350541],[-97.82478,40.698537],[-97.825723,40.698555],[-98.278103,40.698291]]],"type":"Polygon"},"properties":{"AWATER":"3234876","COUNTYNS":"00835839","LSAD":"06","STATE_NAME":"Nebraska","NAMELSAD":"Clay County","STUSPS":"NE","GEOIDFQ":"0500000US31035","COUNTYFP":"035","STATEFP":"31","GEOID":"31035","ALAND":"1482222874","NAME":"Clay"}},{"type":"Feature","geometry":{"coordinates":[[[-97.252425,41.743085],[-97.253519,41.384212],[-97.178464,41.376816],[-96.90591,41.456436],[-96.905922,41.742763],[-97.019911,41.74298],[-97.252425,41.743085]]],"type":"Polygon"},"properties":{"AWATER":"13096487","COUNTYNS":"00835840","LSAD":"06","STATE_NAME":"Nebraska","NAMELSAD":"Colfax County","STUSPS":"NE","GEOIDFQ":"0500000US31037","COUNTYFP":"037","STATEFP":"31","GEOID":"31037","ALAND":"1065675354","NAME":"Colfax"}},{"type":"Feature","geometry":{"coordinates":[[[-97.019359,42.090577],[-97.019911,41.74298],[-96.905922,41.742763],[-96.555172,41.742018],[-96.554866,42.015875],[-96.555511,42.089957],[-96.82367,42.090411],[-97.019359,42.090577]]],"type":"Polygon"},"properties":{"AWATER":"10772508","COUNTYNS":"00835841","LSAD":"06","STATE_NAME":"Nebraska","NAMELSAD":"Cuming County","STUSPS":"NE","GEOIDFQ":"0500000US31039","COUNTYFP":"039","STATEFP":"31","GEOID":"31039","ALAND":"1477563042","NAME":"Cuming"}},{"type":"Feature","geometry":{"coordinates":[[[-100.251224,41.739817],[-100.251098,41.393298],[-100.238117,41.06102],[-100.224235,41.046597],[-99.425986,41.046471],[-99.207564,41.047003],[-99.203261,41.39414],[-99.212394,41.408678],[-99.212016,41.740613],[-99.22183,41.740792],[-99.686834,41.740326],[-100.251224,41.739817]]],"type":"Polygon"},"properties":{"AWATER":"1285152","COUNTYNS":"00835842","LSAD":"06","STATE_NAME":"Nebraska","NAMELSAD":"Custer County","STUSPS":"NE","GEOIDFQ":"0500000US31041","COUNTYFP":"041","STATEFP":"31","GEOID":"31041","ALAND":"6670405021","NAME":"Custer"}},{"type":"Feature","geometry":{"coordinates":[[[-96.722231,42.524652],[-96.726661,42.278005],[-96.375274,42.276359],[-96.351957192496,42.2808947045433],[-96.407998,42.337408],[-96.411808,42.410894],[-96.381307,42.461694],[-96.445508,42.49063],[-96.501321,42.482749],[-96.525142,42.510234],[-96.611489,42.506088],[-96.6279454569017,42.5270961391418],[-96.722231,42.524652]]],"type":"Polygon"},"properties":{"AWATER":"8143543","COUNTYNS":"00835843","LSAD":"06","STATE_NAME":"Nebraska","NAMELSAD":"Dakota County","STUSPS":"NE","GEOIDFQ":"0500000US31043","COUNTYFP":"043","STATEFP":"31","GEOID":"31043","ALAND":"684472406","NAME":"Dakota"}},{"type":"Feature","geometry":{"coordinates":[[[-103.505099916029,43.0007588128236],[-103.480335,42.784908],[-103.48001,42.437267],[-103.444278,42.437275],[-102.773366,42.439922],[-102.773369,42.785265],[-102.792110939839,43.0000362357704],[-103.000609526033,43.0002592867744],[-103.476133,43.000768],[-103.505099916029,43.0007588128236]]],"type":"Polygon"},"properties":{"AWATER":"11755838","COUNTYNS":"00835844","LSAD":"06","STATE_NAME":"Nebraska","NAMELSAD":"Dawes County","STUSPS":"NE","GEOIDFQ":"0500000US31045","COUNTYFP":"045","STATEFP":"31","GEOID":"31045","ALAND":"3616756317","NAME":"Dawes"}},{"type":"Feature","geometry":{"coordinates":[[[-100.224235,41.046597],[-100.223311,40.700254],[-99.981743,40.700003],[-99.699269,40.699969],[-99.643462,40.684911],[-99.444401,40.677892],[-99.417316,40.670825],[-99.426353,40.699772],[-99.425986,41.046471],[-100.224235,41.046597]]],"type":"Polygon"},"properties":{"AWATER":"14624602","COUNTYNS":"00835845","LSAD":"06","STATE_NAME":"Nebraska","NAMELSAD":"Dawson County","STUSPS":"NE","GEOIDFQ":"0500000US31047","COUNTYFP":"047","STATEFP":"31","GEOID":"31047","ALAND":"2625694521","NAME":"Dawson"}},{"type":"Feature","geometry":{"coordinates":[[[-102.610213,41.048207],[-102.621033024452,41.0022232026156],[-102.556789,41.002219],[-102.051717521832,41.0023769676222],[-102.051761,41.003874],[-102.055528,41.047457],[-102.055599,41.221547],[-102.610413,41.221614],[-102.610213,41.048207]]],"type":"Polygon"},"properties":{"AWATER":"2295555","COUNTYNS":"00835846","LSAD":"06","STATE_NAME":"Nebraska","NAMELSAD":"Deuel County","STUSPS":"NE","GEOIDFQ":"0500000US31049","COUNTYFP":"049","STATEFP":"31","GEOID":"31049","ALAND":"1139142625","NAME":"Deuel"}},{"type":"Feature","geometry":{"coordinates":[[[-97.017789,42.351347],[-97.01773,42.264453],[-96.822497,42.264292],[-96.73778,42.264104],[-96.726661,42.278005],[-96.722231,42.524652],[-96.6279454569017,42.5270961391418],[-96.658754,42.566426],[-96.7093,42.603753],[-96.697639,42.659143],[-96.778182,42.662993],[-96.801652,42.698774],[-96.8073706000982,42.700678985373],[-96.906797,42.7338],[-96.965679,42.724532],[-97.0156311127472,42.7565254624882],[-97.017789,42.351347]]],"type":"Polygon"},"properties":{"AWATER":"18379775","COUNTYNS":"00835847","LSAD":"06","STATE_NAME":"Nebraska","NAMELSAD":"Dixon County","STUSPS":"NE","GEOIDFQ":"0500000US31051","COUNTYFP":"051","STATEFP":"31","GEOID":"31051","ALAND":"1231852118","NAME":"Dixon"}},{"type":"Feature","geometry":{"coordinates":[[[-96.905922,41.742763],[-96.90591,41.456436],[-96.905862,41.453389],[-96.569951,41.433371],[-96.47072,41.393239],[-96.329012,41.393136],[-96.434792,41.494928],[-96.444785,41.683633],[-96.444217,41.741775],[-96.555172,41.742018],[-96.905922,41.742763]]],"type":"Polygon"},"properties":{"AWATER":"36668440","COUNTYNS":"00835848","LSAD":"06","STATE_NAME":"Nebraska","NAMELSAD":"Dodge County","STUSPS":"NE","GEOIDFQ":"0500000US31053","COUNTYFP":"053","STATEFP":"31","GEOID":"31053","ALAND":"1369700570","NAME":"Dodge"}},{"type":"Feature","geometry":{"coordinates":[[[-96.47072,41.393239],[-96.421439,41.364165],[-96.327399,41.189999],[-96.174312,41.190645],[-95.9099128702696,41.1914208374192],[-95.911391,41.237998],[-95.890152,41.278308],[-95.92569,41.322197],[-95.92879,41.370096],[-95.9273362423201,41.3899879374596],[-95.945045,41.393095],[-96.329012,41.393136],[-96.47072,41.393239]]],"type":"Polygon"},"properties":{"AWATER":"33157919","COUNTYNS":"00835849","LSAD":"06","STATE_NAME":"Nebraska","NAMELSAD":"Douglas County","STUSPS":"NE","GEOIDFQ":"0500000US31055","COUNTYFP":"055","STATEFP":"31","GEOID":"31055","ALAND":"845753516","NAME":"Douglas"}},{"type":"Feature","geometry":{"coordinates":[[[-102.051309,40.338381],[-102.051744,40.003078],[-101.832161,40.002933],[-101.542273,40.002609],[-101.411028987802,40.0025825695676],[-101.324036026572,40.0025650505849],[-101.323353,40.350553],[-101.342788,40.350444],[-102.051308551844,40.3492213568722],[-102.051309,40.338381]]],"type":"Polygon"},"properties":{"AWATER":"3046331","COUNTYNS":"00835850","LSAD":"06","STATE_NAME":"Nebraska","NAMELSAD":"Dundy County","STUSPS":"NE","GEOIDFQ":"0500000US31057","COUNTYFP":"057","STATEFP":"31","GEOID":"31057","ALAND":"2381956207","NAME":"Dundy"}},{"type":"Feature","geometry":{"coordinates":[[[-97.82478,40.698537],[-97.824114,40.350541],[-97.820816,40.350545],[-97.368688,40.350392],[-97.368401,40.698625],[-97.82478,40.698537]]],"type":"Polygon"},"properties":{"AWATER":"2991991","COUNTYNS":"00835851","LSAD":"06","STATE_NAME":"Nebraska","NAMELSAD":"Fillmore County","STUSPS":"NE","GEOIDFQ":"0500000US31059","COUNTYFP":"059","STATEFP":"31","GEOID":"31059","ALAND":"1490200737","NAME":"Fillmore"}},{"type":"Feature","geometry":{"coordinates":[[[-99.179403,40.350681],[-99.1791331508611,40.0021089526949],[-99.085597,40.002133],[-99.0670183498981,40.0021435130522],[-98.726372963939,40.0023362731669],[-98.726827,40.350398],[-99.179403,40.350681]]],"type":"Polygon"},"properties":{"AWATER":"487899","COUNTYNS":"00835852","LSAD":"06","STATE_NAME":"Nebraska","NAMELSAD":"Franklin County","STUSPS":"NE","GEOIDFQ":"0500000US31061","COUNTYFP":"061","STATEFP":"31","GEOID":"31061","ALAND":"1491355858","NAME":"Franklin"}},{"type":"Feature","geometry":{"coordinates":[[[-100.777833,40.700135],[-100.777376,40.349466],[-100.758435,40.349507],[-100.197807,40.350027],[-100.094798,40.351245],[-100.095095,40.438656],[-99.981193,40.438291],[-99.981743,40.700003],[-100.223311,40.700254],[-100.777833,40.700135]]],"type":"Polygon"},"properties":{"AWATER":"14047824","COUNTYNS":"00835853","LSAD":"06","STATE_NAME":"Nebraska","NAMELSAD":"Frontier County","STUSPS":"NE","GEOIDFQ":"0500000US31063","COUNTYFP":"063","STATEFP":"31","GEOID":"31063","ALAND":"2524345615","NAME":"Frontier"}},{"type":"Feature","geometry":{"coordinates":[[[-100.197807,40.350027],[-100.19359,40.001573],[-100.177797545879,40.0015658138516],[-99.813401,40.0014],[-99.6282538492245,40.0017719472684],[-99.630459,40.35112],[-99.642209,40.3512],[-100.094798,40.351245],[-100.197807,40.350027]]],"type":"Polygon"},"properties":{"AWATER":"3727356","COUNTYNS":"00835854","LSAD":"06","STATE_NAME":"Nebraska","NAMELSAD":"Furnas County","STUSPS":"NE","GEOIDFQ":"0500000US31065","COUNTYFP":"065","STATEFP":"31","GEOID":"31065","ALAND":"1862730830","NAME":"Furnas"}},{"type":"Feature","geometry":{"coordinates":[[[-96.916055,40.349727],[-96.9164070054658,40.0014540910439],[-96.873812,40.00145],[-96.805768,40.0013684550954],[-96.469945,40.000966],[-96.4637120767748,40.0009585725545],[-96.463667,40.262173],[-96.463632,40.523013],[-96.912637,40.523625],[-96.913513,40.370371],[-96.916055,40.349727]]],"type":"Polygon"},"properties":{"AWATER":"21993057","COUNTYNS":"00835855","LSAD":"06","STATE_NAME":"Nebraska","NAMELSAD":"Gage County","STUSPS":"NE","GEOIDFQ":"0500000US31067","COUNTYFP":"067","STATEFP":"31","GEOID":"31067","ALAND":"2205292876","NAME":"Gage"}},{"type":"Feature","geometry":{"coordinates":[[[-102.677582,42.005282],[-102.6794,41.829053],[-102.635803,41.742834],[-102.636525,41.438809],[-102.609386,41.395115],[-102.610413,41.221614],[-102.055599,41.221547],[-102.055256,41.395162],[-101.984567,41.395012],[-101.985523,41.74229],[-102.067764,41.742075],[-102.06665,42.009195],[-102.677582,42.005282]]],"type":"Polygon"},"properties":{"AWATER":"67450146","COUNTYNS":"00835856","LSAD":"06","STATE_NAME":"Nebraska","NAMELSAD":"Garden County","STUSPS":"NE","GEOIDFQ":"0500000US31069","COUNTYFP":"069","STATEFP":"31","GEOID":"31069","ALAND":"4415478551","NAME":"Garden"}},{"type":"Feature","geometry":{"coordinates":[[[-99.222733,42.087916],[-99.22183,41.740792],[-99.212016,41.740613],[-98.759133,41.740382],[-98.761155,42.088518],[-99.222733,42.087916]]],"type":"Polygon"},"properties":{"AWATER":"5255328","COUNTYNS":"00835857","LSAD":"06","STATE_NAME":"Nebraska","NAMELSAD":"Garfield County","STUSPS":"NE","GEOIDFQ":"0500000US31071","COUNTYFP":"071","STATEFP":"31","GEOID":"31071","ALAND":"1474624515","NAME":"Garfield"}},{"type":"Feature","geometry":{"coordinates":[[[-100.095095,40.438656],[-100.094798,40.351245],[-99.642209,40.3512],[-99.643462,40.684911],[-99.699269,40.699969],[-99.981743,40.700003],[-99.981193,40.438291],[-100.095095,40.438656]]],"type":"Polygon"},"properties":{"AWATER":"11718014","COUNTYNS":"00835858","LSAD":"06","STATE_NAME":"Nebraska","NAMELSAD":"Gosper County","STUSPS":"NE","GEOIDFQ":"0500000US31073","COUNTYFP":"073","STATEFP":"31","GEOID":"31073","ALAND":"1186729977","NAME":"Gosper"}},{"type":"Feature","geometry":{"coordinates":[[[-102.06665,42.009195],[-102.067764,41.742075],[-101.985523,41.74229],[-101.42592,41.743059],[-101.426557,42.092194],[-102.006428,42.096227],[-102.008562,42.008901],[-102.06665,42.009195]]],"type":"Polygon"},"properties":{"AWATER":"17249018","COUNTYNS":"00835859","LSAD":"06","STATE_NAME":"Nebraska","NAMELSAD":"Grant County","STUSPS":"NE","GEOIDFQ":"0500000US31075","COUNTYFP":"075","STATEFP":"31","GEOID":"31075","ALAND":"2011633360","NAME":"Grant"}},{"type":"Feature","geometry":{"coordinates":[[[-98.752225,41.740372],[-98.751558,41.394084],[-98.74433,41.394178],[-98.291419,41.393894],[-98.291344,41.480727],[-98.290992,41.719787],[-98.29576,41.741178],[-98.752225,41.740372]]],"type":"Polygon"},"properties":{"AWATER":"2150066","COUNTYNS":"00835860","LSAD":"06","STATE_NAME":"Nebraska","NAMELSAD":"Greeley County","STUSPS":"NE","GEOIDFQ":"0500000US31077","COUNTYFP":"077","STATEFP":"31","GEOID":"31077","ALAND":"1475843022","NAME":"Greeley"}},{"type":"Feature","geometry":{"coordinates":[[[-98.721975,41.046674],[-98.72143,40.698903],[-98.282851,40.698284],[-98.282578,40.868677],[-98.282395,41.026597],[-98.287168,41.046363],[-98.721975,41.046674]]],"type":"Polygon"},"properties":{"AWATER":"14542805","COUNTYNS":"00835861","LSAD":"06","STATE_NAME":"Nebraska","NAMELSAD":"Hall County","STUSPS":"NE","GEOIDFQ":"0500000US31079","COUNTYFP":"079","STATEFP":"31","GEOID":"31079","ALAND":"1415504336","NAME":"Hall"}},{"type":"Feature","geometry":{"coordinates":[[[-98.282578,40.868677],[-98.282851,40.698284],[-98.278103,40.698291],[-97.825723,40.698555],[-97.826287,41.046581],[-97.828256,41.173439],[-97.874073,41.123148],[-98.010548,41.072761],[-98.282578,40.868677]]],"type":"Polygon"},"properties":{"AWATER":"7017550","COUNTYNS":"00835862","LSAD":"06","STATE_NAME":"Nebraska","NAMELSAD":"Hamilton County","STUSPS":"NE","GEOIDFQ":"0500000US31081","COUNTYFP":"081","STATEFP":"31","GEOID":"31081","ALAND":"1403851003","NAME":"Hamilton"}},{"type":"Feature","geometry":{"coordinates":[[[-99.630459,40.35112],[-99.6282538492245,40.0017719472684],[-99.6253267263996,40.001777827647],[-99.501792,40.002026],[-99.1791331508611,40.0021089526949],[-99.179403,40.350681],[-99.630459,40.35112]]],"type":"Polygon"},"properties":{"AWATER":"53339808","COUNTYNS":"00835863","LSAD":"06","STATE_NAME":"Nebraska","NAMELSAD":"Harlan County","STUSPS":"NE","GEOIDFQ":"0500000US31083","COUNTYFP":"083","STATEFP":"31","GEOID":"31083","ALAND":"1433471184","NAME":"Harlan"}},{"type":"Feature","geometry":{"coordinates":[[[-101.345365,40.698093],[-101.342788,40.350444],[-101.323353,40.350553],[-100.777376,40.349466],[-100.777833,40.700135],[-101.247963,40.697802],[-101.345365,40.698093]]],"type":"Polygon"},"properties":{"AWATER":"562429","COUNTYNS":"00835864","LSAD":"06","STATE_NAME":"Nebraska","NAMELSAD":"Hayes County","STUSPS":"NE","GEOIDFQ":"0500000US31085","COUNTYFP":"085","STATEFP":"31","GEOID":"31085","ALAND":"1846829900","NAME":"Hayes"}},{"type":"Feature","geometry":{"coordinates":[[[-101.323353,40.350553],[-101.324036026572,40.0025650505849],[-101.293991,40.002559],[-101.060317,40.002307],[-100.75883,40.002302],[-100.758435,40.349507],[-100.777376,40.349466],[-101.323353,40.350553]]],"type":"Polygon"},"properties":{"AWATER":"22080715","COUNTYNS":"00835865","LSAD":"06","STATE_NAME":"Nebraska","NAMELSAD":"Hitchcock County","STUSPS":"NE","GEOIDFQ":"0500000US31087","COUNTYFP":"087","STATEFP":"31","GEOID":"31087","ALAND":"1838765330","NAME":"Hitchcock"}},{"type":"Feature","geometry":{"coordinates":[[[-99.257039,42.804296],[-99.245803,42.782499],[-99.234629,42.087995],[-99.222733,42.087916],[-98.761155,42.088518],[-98.300592,42.088853],[-98.300235,42.436913],[-98.30544,42.451422],[-98.305149,42.761207],[-98.58376,42.779736],[-98.656835,42.809021],[-98.892846,42.845792],[-98.982527,42.896436],[-99.257039,42.804296]]],"type":"Polygon"},"properties":{"AWATER":"14619277","COUNTYNS":"00835866","LSAD":"06","STATE_NAME":"Nebraska","NAMELSAD":"Holt County","STUSPS":"NE","GEOIDFQ":"0500000US31089","COUNTYFP":"089","STATEFP":"31","GEOID":"31089","ALAND":"6246663903","NAME":"Holt"}},{"type":"Feature","geometry":{"coordinates":[[[-101.426557,42.092194],[-101.42592,41.743059],[-101.406466,41.7432],[-100.842459,41.740404],[-100.846129,42.088166],[-101.426557,42.092194]]],"type":"Polygon"},"properties":{"AWATER":"1385457","COUNTYNS":"00835867","LSAD":"06","STATE_NAME":"Nebraska","NAMELSAD":"Hooker County","STUSPS":"NE","GEOIDFQ":"0500000US31091","COUNTYFP":"091","STATEFP":"31","GEOID":"31091","ALAND":"1867293650","NAME":"Hooker"}},{"type":"Feature","geometry":{"coordinates":[[[-98.74433,41.394178],[-98.748526,41.04664],[-98.721975,41.046674],[-98.287168,41.046363],[-98.286584,41.393898],[-98.291419,41.393894],[-98.74433,41.394178]]],"type":"Polygon"},"properties":{"AWATER":"16376495","COUNTYNS":"00835868","LSAD":"06","STATE_NAME":"Nebraska","NAMELSAD":"Howard County","STUSPS":"NE","GEOIDFQ":"0500000US31093","COUNTYFP":"093","STATEFP":"31","GEOID":"31093","ALAND":"1474401357","NAME":"Howard"}},{"type":"Feature","geometry":{"coordinates":[[[-97.368688,40.350392],[-97.369199035315,40.0019393057605],[-97.009165,40.001463],[-96.9164070054658,40.0014540910439],[-96.916055,40.349727],[-97.368688,40.350392]]],"type":"Polygon"},"properties":{"AWATER":"14202900","COUNTYNS":"00835869","LSAD":"06","STATE_NAME":"Nebraska","NAMELSAD":"Jefferson County","STUSPS":"NE","GEOIDFQ":"0500000US31095","COUNTYFP":"095","STATEFP":"31","GEOID":"31095","ALAND":"1476765644","NAME":"Jefferson"}},{"type":"Feature","geometry":{"coordinates":[[[-96.463632,40.523013],[-96.463667,40.262173],[-96.066736,40.262038],[-96.067012,40.523148],[-96.463632,40.523013]]],"type":"Polygon"},"properties":{"AWATER":"1675330","COUNTYNS":"00835870","LSAD":"06","STATE_NAME":"Nebraska","NAMELSAD":"Johnson County","STUSPS":"NE","GEOIDFQ":"0500000US31097","COUNTYFP":"097","STATEFP":"31","GEOID":"31097","ALAND":"974059402","NAME":"Johnson"}},{"type":"Feature","geometry":{"coordinates":[[[-99.179248,40.660541],[-99.179403,40.350681],[-98.726827,40.350398],[-98.723948,40.350391],[-98.724387,40.689772],[-98.906096,40.652722],[-99.179248,40.660541]]],"type":"Polygon"},"properties":{"AWATER":"404663","COUNTYNS":"00835871","LSAD":"06","STATE_NAME":"Nebraska","NAMELSAD":"Kearney County","STUSPS":"NE","GEOIDFQ":"0500000US31099","COUNTYFP":"099","STATEFP":"31","GEOID":"31099","ALAND":"1336933472","NAME":"Kearney"}},{"type":"Feature","geometry":{"coordinates":[[[-102.055599,41.221547],[-102.055528,41.047457],[-102.051761,41.003874],[-102.026997,41.003194],[-101.249975,41.00395],[-101.270381,41.047392],[-101.269695,41.394934],[-101.40726,41.395416],[-101.984567,41.395012],[-102.055256,41.395162],[-102.055599,41.221547]]],"type":"Polygon"},"properties":{"AWATER":"123802447","COUNTYNS":"00835872","LSAD":"06","STATE_NAME":"Nebraska","NAMELSAD":"Keith County","STUSPS":"NE","GEOIDFQ":"0500000US31101","COUNTYFP":"101","STATEFP":"31","GEOID":"31101","ALAND":"2750729960","NAME":"Keith"}},{"type":"Feature","geometry":{"coordinates":[[[-100.198413799775,42.9979768839694],[-100.198478,42.846102],[-100.11334,42.799683],[-99.677684,42.730903],[-99.537491,42.717626],[-99.415222,42.772098],[-99.257039,42.804296],[-99.2544550123166,42.9982209267867],[-99.534055014809,42.9981974883181],[-99.850037,42.998171],[-100.198412588721,42.9979768846442],[-100.198413799775,42.9979768839694]]],"type":"Polygon"},"properties":{"AWATER":"2710300","COUNTYNS":"00835873","LSAD":"06","STATE_NAME":"Nebraska","NAMELSAD":"Keya Paha County","STUSPS":"NE","GEOIDFQ":"0500000US31103","COUNTYFP":"103","STATEFP":"31","GEOID":"31103","ALAND":"2001740192","NAME":"Keya Paha"}},{"type":"Feature","geometry":{"coordinates":[[[-104.053142,41.114457],[-104.053249,41.001406],[-103.574522,41.001721],[-103.573774006195,41.0017217990841],[-103.38249165189,41.001926146621],[-103.375691,41.047623],[-103.37762,41.394633],[-104.052287134121,41.3932140001934],[-104.052453,41.278202],[-104.053142,41.114457]]],"type":"Polygon"},"properties":{"AWATER":"1448446","COUNTYNS":"00835874","LSAD":"06","STATE_NAME":"Nebraska","NAMELSAD":"Kimball County","STUSPS":"NE","GEOIDFQ":"0500000US31105","COUNTYFP":"105","STATEFP":"31","GEOID":"31105","ALAND":"2465517102","NAME":"Kimball"}},{"type":"Feature","geometry":{"coordinates":[[[-98.3081868164513,42.8864892074256],[-98.310239,42.784618],[-98.305149,42.761207],[-98.30544,42.451422],[-98.300235,42.436913],[-97.834431,42.437684],[-97.485298,42.438578],[-97.484916876342,42.8500032148679],[-97.515948,42.853752],[-97.59926,42.856229],[-97.6354420904415,42.8518090751855],[-97.70103,42.843797],[-97.801344,42.858003],[-97.857957,42.865093],[-97.876887,42.852663],[-97.905001,42.798872],[-97.950147,42.769619],[-98.035034,42.764205],[-98.1047,42.808475],[-98.14806,42.840013],[-98.1525866548382,42.8411533810637],[-98.231922,42.86114],[-98.280007,42.874996],[-98.3081868164513,42.8864892074256]]],"type":"Polygon"},"properties":{"AWATER":"81551358","COUNTYNS":"00835875","LSAD":"06","STATE_NAME":"Nebraska","NAMELSAD":"Knox County","STUSPS":"NE","GEOIDFQ":"0500000US31107","COUNTYFP":"107","STATEFP":"31","GEOID":"31107","ALAND":"2870314746","NAME":"Knox"}},{"type":"Feature","geometry":{"coordinates":[[[-96.913493,40.697948],[-96.912637,40.523625],[-96.463632,40.523013],[-96.463764,40.78396],[-96.463861,41.016069],[-96.463869,41.045083],[-96.908507,41.046091],[-96.91094,41.046116],[-96.911049,40.714102],[-96.913493,40.697948]]],"type":"Polygon"},"properties":{"AWATER":"22850511","COUNTYNS":"00835876","LSAD":"06","STATE_NAME":"Nebraska","NAMELSAD":"Lancaster County","STUSPS":"NE","GEOIDFQ":"0500000US31109","COUNTYFP":"109","STATEFP":"31","GEOID":"31109","ALAND":"2169269508","NAME":"Lancaster"}},{"type":"Feature","geometry":{"coordinates":[[[-101.269695,41.394934],[-101.270381,41.047392],[-101.249975,41.00395],[-101.247963,40.697802],[-100.777833,40.700135],[-100.223311,40.700254],[-100.224235,41.046597],[-100.238117,41.06102],[-100.251098,41.393298],[-100.713243,41.393511],[-101.269695,41.394934]]],"type":"Polygon"},"properties":{"AWATER":"28397612","COUNTYNS":"00835877","LSAD":"06","STATE_NAME":"Nebraska","NAMELSAD":"Lincoln County","STUSPS":"NE","GEOIDFQ":"0500000US31111","COUNTYFP":"111","STATEFP":"31","GEOID":"31111","ALAND":"6641131934","NAME":"Lincoln"}},{"type":"Feature","geometry":{"coordinates":[[[-100.711409,41.739759],[-100.713243,41.393511],[-100.251098,41.393298],[-100.251224,41.739817],[-100.265474,41.739856],[-100.711409,41.739759]]],"type":"Polygon"},"properties":{"AWATER":"1203586","COUNTYNS":"00835878","LSAD":"06","STATE_NAME":"Nebraska","NAMELSAD":"Logan County","STUSPS":"NE","GEOIDFQ":"0500000US31113","COUNTYFP":"113","STATEFP":"31","GEOID":"31113","ALAND":"1478101926","NAME":"Logan"}},{"type":"Feature","geometry":{"coordinates":[[[-99.686959,42.086075],[-99.686834,41.740326],[-99.22183,41.740792],[-99.222733,42.087916],[-99.234629,42.087995],[-99.662379,42.086009],[-99.686959,42.086075]]],"type":"Polygon"},"properties":{"AWATER":"20032911","COUNTYNS":"00835879","LSAD":"06","STATE_NAME":"Nebraska","NAMELSAD":"Loup County","STUSPS":"NE","GEOIDFQ":"0500000US31115","COUNTYFP":"115","STATEFP":"31","GEOID":"31115","ALAND":"1459046157","NAME":"Loup"}},{"type":"Feature","geometry":{"coordinates":[[[-101.406466,41.7432],[-101.40726,41.395416],[-101.269695,41.394934],[-100.713243,41.393511],[-100.711409,41.739759],[-100.842459,41.740404],[-101.406466,41.7432]]],"type":"Polygon"},"properties":{"AWATER":"2671077","COUNTYNS":"00835881","LSAD":"06","STATE_NAME":"Nebraska","NAMELSAD":"McPherson County","STUSPS":"NE","GEOIDFQ":"0500000US31117","COUNTYFP":"117","STATEFP":"31","GEOID":"31117","ALAND":"2225470205","NAME":"McPherson"}},{"type":"Feature","geometry":{"coordinates":[[[-97.834536,42.08975],[-97.833288,41.916286],[-97.830493,41.742238],[-97.36807,41.743207],[-97.368404,42.090922],[-97.834536,42.08975]]],"type":"Polygon"},"properties":{"AWATER":"7352795","COUNTYNS":"00835880","LSAD":"06","STATE_NAME":"Nebraska","NAMELSAD":"Madison County","STUSPS":"NE","GEOIDFQ":"0500000US31119","COUNTYFP":"119","STATEFP":"31","GEOID":"31119","ALAND":"1483057694","NAME":"Madison"}},{"type":"Feature","geometry":{"coordinates":[[[-98.286584,41.393898],[-98.287168,41.046363],[-98.282395,41.026597],[-98.282578,40.868677],[-98.010548,41.072761],[-97.874073,41.123148],[-97.828256,41.173439],[-97.679143,41.292563],[-97.598222,41.328037],[-97.598253,41.333119],[-97.598461,41.395068],[-97.703765,41.394876],[-97.705497,41.309134],[-98.053137,41.293123],[-98.101546,41.264041],[-98.275408,41.264341],[-98.286584,41.393898]]],"type":"Polygon"},"properties":{"AWATER":"23270576","COUNTYNS":"00835882","LSAD":"06","STATE_NAME":"Nebraska","NAMELSAD":"Merrick County","STUSPS":"NE","GEOIDFQ":"0500000US31121","COUNTYFP":"121","STATEFP":"31","GEOID":"31121","ALAND":"1263381774","NAME":"Merrick"}},{"type":"Feature","geometry":{"coordinates":[[[-103.370391,41.69921],[-103.369005,41.437766],[-102.636525,41.438809],[-102.635803,41.742834],[-102.6794,41.829053],[-102.677582,42.005282],[-102.697835,42.004843],[-103.363337,42.00293],[-103.36262,41.743548],[-103.370391,41.69921]]],"type":"Polygon"},"properties":{"AWATER":"16454219","COUNTYNS":"00835883","LSAD":"06","STATE_NAME":"Nebraska","NAMELSAD":"Morrill County","STUSPS":"NE","GEOIDFQ":"0500000US31123","COUNTYFP":"123","STATEFP":"31","GEOID":"31123","ALAND":"3687380852","NAME":"Morrill"}},{"type":"Feature","geometry":{"coordinates":[[[-98.291344,41.480727],[-98.291419,41.393894],[-98.286584,41.393898],[-98.275408,41.264341],[-98.101546,41.264041],[-98.053137,41.293123],[-97.705497,41.309134],[-97.703765,41.394876],[-97.703627,41.526796],[-97.829846,41.526174],[-98.041328,41.510534],[-98.099523,41.480777],[-98.291344,41.480727]]],"type":"Polygon"},"properties":{"AWATER":"17185449","COUNTYNS":"00835884","LSAD":"06","STATE_NAME":"Nebraska","NAMELSAD":"Nance County","STUSPS":"NE","GEOIDFQ":"0500000US31125","COUNTYFP":"125","STATEFP":"31","GEOID":"31125","ALAND":"1143726728","NAME":"Nance"}},{"type":"Feature","geometry":{"coordinates":[[[-96.067012,40.523148],[-96.066736,40.262038],[-96.010176,40.261482],[-95.5478703162703,40.2627834608198],[-95.5481820011801,40.2644146728427],[-95.553292,40.291158],[-95.598657,40.309809],[-95.653729,40.322582],[-95.641027,40.366399],[-95.649418,40.396149],[-95.684363,40.463366],[-95.694726,40.493602],[-95.7122801670449,40.5237540745061],[-96.067012,40.523148]]],"type":"Polygon"},"properties":{"AWATER":"5966167","COUNTYNS":"00835885","LSAD":"06","STATE_NAME":"Nebraska","NAMELSAD":"Nemaha County","STUSPS":"NE","GEOIDFQ":"0500000US31127","COUNTYFP":"127","STATEFP":"31","GEOID":"31127","ALAND":"1054904350","NAME":"Nemaha"}},{"type":"Feature","geometry":{"coordinates":[[[-98.273571,40.350359],[-98.2740170597529,40.0023374507299],[-98.076034,40.002301],[-97.9318249263172,40.0022363450196],[-97.8215008122752,40.0021868820889],[-97.820816,40.350545],[-97.824114,40.350541],[-98.273571,40.350359]]],"type":"Polygon"},"properties":{"AWATER":"1718484","COUNTYNS":"00835886","LSAD":"06","STATE_NAME":"Nebraska","NAMELSAD":"Nuckolls County","STUSPS":"NE","GEOIDFQ":"0500000US31129","COUNTYFP":"129","STATEFP":"31","GEOID":"31129","ALAND":"1489645201","NAME":"Nuckolls"}},{"type":"Feature","geometry":{"coordinates":[[[-96.463764,40.78396],[-96.463632,40.523013],[-96.067012,40.523148],[-95.7122801670449,40.5237540745061],[-95.714291,40.527208],[-95.75711,40.52599],[-95.765645,40.585208],[-95.748626,40.603355],[-95.781909,40.653272],[-95.846034,40.682605],[-95.888697,40.736292],[-95.834156,40.783016],[-95.8342438167144,40.7837843870431],[-96.463764,40.78396]]],"type":"Polygon"},"properties":{"AWATER":"8812019","COUNTYNS":"00835887","LSAD":"06","STATE_NAME":"Nebraska","NAMELSAD":"Otoe County","STUSPS":"NE","GEOIDFQ":"0500000US31131","COUNTYFP":"131","STATEFP":"31","GEOID":"31131","ALAND":"1594439031","NAME":"Otoe"}},{"type":"Feature","geometry":{"coordinates":[[[-96.463667,40.262173],[-96.4637120767748,40.0009585725545],[-96.2392078784111,40.0006910427544],[-96.239172,40.000691],[-96.154365,40.000495],[-96.02409,40.000719],[-96.0106788179345,40.000704665772],[-96.010176,40.261482],[-96.066736,40.262038],[-96.463667,40.262173]]],"type":"Polygon"},"properties":{"AWATER":"4852359","COUNTYNS":"00835888","LSAD":"06","STATE_NAME":"Nebraska","NAMELSAD":"Pawnee County","STUSPS":"NE","GEOIDFQ":"0500000US31133","COUNTYFP":"133","STATEFP":"31","GEOID":"31133","ALAND":"1116478172","NAME":"Pawnee"}},{"type":"Feature","geometry":{"coordinates":[[[-102.051761,41.003874],[-102.051717521832,41.0023769676222],[-102.051614,41.002377],[-102.051292,40.749591],[-102.051294151579,40.697546832389],[-101.345365,40.698093],[-101.247963,40.697802],[-101.249975,41.00395],[-102.026997,41.003194],[-102.051761,41.003874]]],"type":"Polygon"},"properties":{"AWATER":"2840175","COUNTYNS":"00835889","LSAD":"06","STATE_NAME":"Nebraska","NAMELSAD":"Perkins County","STUSPS":"NE","GEOIDFQ":"0500000US31135","COUNTYFP":"135","STATEFP":"31","GEOID":"31135","ALAND":"2287768805","NAME":"Perkins"}},{"type":"Feature","geometry":{"coordinates":[[[-99.643462,40.684911],[-99.642209,40.3512],[-99.630459,40.35112],[-99.179403,40.350681],[-99.179248,40.660541],[-99.380544,40.66486],[-99.417316,40.670825],[-99.444401,40.677892],[-99.643462,40.684911]]],"type":"Polygon"},"properties":{"AWATER":"1709313","COUNTYNS":"00835890","LSAD":"06","STATE_NAME":"Nebraska","NAMELSAD":"Phelps County","STUSPS":"NE","GEOIDFQ":"0500000US31137","COUNTYFP":"137","STATEFP":"31","GEOID":"31137","ALAND":"1397985731","NAME":"Phelps"}},{"type":"Feature","geometry":{"coordinates":[[[-97.834431,42.437684],[-97.834536,42.08975],[-97.368404,42.090922],[-97.367724,42.351861],[-97.36759,42.438775],[-97.485298,42.438578],[-97.834431,42.437684]]],"type":"Polygon"},"properties":{"AWATER":"3482144","COUNTYNS":"00835891","LSAD":"06","STATE_NAME":"Nebraska","NAMELSAD":"Pierce County","STUSPS":"NE","GEOIDFQ":"0500000US31139","COUNTYFP":"139","STATEFP":"31","GEOID":"31139","ALAND":"1484707028","NAME":"Pierce"}},{"type":"Feature","geometry":{"coordinates":[[[-97.830493,41.742238],[-97.829846,41.526174],[-97.703627,41.526796],[-97.703765,41.394876],[-97.598461,41.395068],[-97.598253,41.333119],[-97.522412,41.361934],[-97.368186,41.396416],[-97.287761,41.400638],[-97.253519,41.384212],[-97.252425,41.743085],[-97.36807,41.743207],[-97.830493,41.742238]]],"type":"Polygon"},"properties":{"AWATER":"24530563","COUNTYNS":"00835892","LSAD":"06","STATE_NAME":"Nebraska","NAMELSAD":"Platte County","STUSPS":"NE","GEOIDFQ":"0500000US31141","COUNTYFP":"141","STATEFP":"31","GEOID":"31141","ALAND":"1748547664","NAME":"Platte"}},{"type":"Feature","geometry":{"coordinates":[[[-97.828256,41.173439],[-97.826287,41.046581],[-97.368118,41.046947],[-97.368061,41.163014],[-97.368186,41.396416],[-97.522412,41.361934],[-97.598253,41.333119],[-97.598222,41.328037],[-97.679143,41.292563],[-97.828256,41.173439]]],"type":"Polygon"},"properties":{"AWATER":"4687900","COUNTYNS":"00835893","LSAD":"06","STATE_NAME":"Nebraska","NAMELSAD":"Polk County","STUSPS":"NE","GEOIDFQ":"0500000US31143","COUNTYFP":"143","STATEFP":"31","GEOID":"31143","ALAND":"1136569018","NAME":"Polk"}},{"type":"Feature","geometry":{"coordinates":[[[-100.758435,40.349507],[-100.75883,40.002302],[-100.738824713191,40.0022629565677],[-100.477018,40.001752],[-100.19359,40.001573],[-100.197807,40.350027],[-100.758435,40.349507]]],"type":"Polygon"},"properties":{"AWATER":"2164642","COUNTYNS":"00835894","LSAD":"06","STATE_NAME":"Nebraska","NAMELSAD":"Red Willow County","STUSPS":"NE","GEOIDFQ":"0500000US31145","COUNTYFP":"145","STATEFP":"31","GEOID":"31145","ALAND":"1857462678","NAME":"Red Willow"}},{"type":"Feature","geometry":{"coordinates":[[[-96.010176,40.261482],[-96.0106788179345,40.000704665772],[-95.7881109948917,40.0004667793653],[-95.784575,40.000463],[-95.3398959708503,40.0000288571054],[-95.30829,39.999998],[-95.348777,40.029297],[-95.382957,40.027112],[-95.414734,40.06982],[-95.394216,40.108263],[-95.432165,40.141025],[-95.48102,40.188524],[-95.472548,40.236078],[-95.54716,40.259066],[-95.5478703162703,40.2627834608198],[-96.010176,40.261482]]],"type":"Polygon"},"properties":{"AWATER":"7077610","COUNTYNS":"00835895","LSAD":"06","STATE_NAME":"Nebraska","NAMELSAD":"Richardson County","STUSPS":"NE","GEOIDFQ":"0500000US31147","COUNTYFP":"147","STATEFP":"31","GEOID":"31147","ALAND":"1429261308","NAME":"Richardson"}},{"type":"Feature","geometry":{"coordinates":[[[-99.677684,42.730903],[-99.663752,42.434609],[-99.662379,42.086009],[-99.234629,42.087995],[-99.245803,42.782499],[-99.257039,42.804296],[-99.415222,42.772098],[-99.537491,42.717626],[-99.677684,42.730903]]],"type":"Polygon"},"properties":{"AWATER":"8812080","COUNTYNS":"00835896","LSAD":"06","STATE_NAME":"Nebraska","NAMELSAD":"Rock County","STUSPS":"NE","GEOIDFQ":"0500000US31149","COUNTYFP":"149","STATEFP":"31","GEOID":"31149","ALAND":"2611461740","NAME":"Rock"}},{"type":"Feature","geometry":{"coordinates":[[[-97.368401,40.698625],[-97.368688,40.350392],[-96.916055,40.349727],[-96.913513,40.370371],[-96.912637,40.523625],[-96.913493,40.697948],[-97.368401,40.698625]]],"type":"Polygon"},"properties":{"AWATER":"5798028","COUNTYNS":"00835897","LSAD":"06","STATE_NAME":"Nebraska","NAMELSAD":"Saline County","STUSPS":"NE","GEOIDFQ":"0500000US31151","COUNTYFP":"151","STATEFP":"31","GEOID":"31151","ALAND":"1486835320","NAME":"Saline"}},{"type":"Feature","geometry":{"coordinates":[[[-96.327399,41.189999],[-96.339805,41.082502],[-96.319191,41.044998],[-96.218939,40.994308],[-96.056256,41.065356],[-96.005191,41.060624],[-95.978778,41.053362],[-95.8647847640853,41.0528455046135],[-95.863839,41.083507],[-95.868688,41.124698],[-95.8618980682094,41.1603023482127],[-95.856788,41.187098],[-95.90969,41.184398],[-95.9099128702696,41.1914208374192],[-96.174312,41.190645],[-96.327399,41.189999]]],"type":"Polygon"},"properties":{"AWATER":"24669083","COUNTYNS":"00835898","LSAD":"06","STATE_NAME":"Nebraska","NAMELSAD":"Sarpy County","STUSPS":"NE","GEOIDFQ":"0500000US31153","COUNTYFP":"153","STATEFP":"31","GEOID":"31153","ALAND":"616406193","NAME":"Sarpy"}},{"type":"Feature","geometry":{"coordinates":[[[-96.905862,41.453389],[-96.908507,41.046091],[-96.463869,41.045083],[-96.463861,41.016069],[-96.349471,41.015211],[-96.319191,41.044998],[-96.339805,41.082502],[-96.327399,41.189999],[-96.421439,41.364165],[-96.47072,41.393239],[-96.569951,41.433371],[-96.905862,41.453389]]],"type":"Polygon"},"properties":{"AWATER":"28792403","COUNTYNS":"00835899","LSAD":"06","STATE_NAME":"Nebraska","NAMELSAD":"Saunders County","STUSPS":"NE","GEOIDFQ":"0500000US31155","COUNTYFP":"155","STATEFP":"31","GEOID":"31155","ALAND":"1939132563","NAME":"Saunders"}},{"type":"Feature","geometry":{"coordinates":[[[-104.053026,41.885464],[-104.052825094979,41.6978228532141],[-103.370391,41.69921],[-103.36262,41.743548],[-103.363337,42.00293],[-103.401522,42.003537],[-104.052762109856,42.0017302658048],[-104.053026,41.885464]]],"type":"Polygon"},"properties":{"AWATER":"15369467","COUNTYNS":"00835900","LSAD":"06","STATE_NAME":"Nebraska","NAMELSAD":"Scotts Bluff County","STUSPS":"NE","GEOIDFQ":"0500000US31157","COUNTYFP":"157","STATEFP":"31","GEOID":"31157","ALAND":"1915608691","NAME":"Scotts Bluff"}},{"type":"Feature","geometry":{"coordinates":[[[-97.368118,41.046947],[-97.368401,40.698625],[-96.913493,40.697948],[-96.911049,40.714102],[-96.91094,41.046116],[-97.368118,41.046947]]],"type":"Polygon"},"properties":{"AWATER":"11540727","COUNTYNS":"00835901","LSAD":"06","STATE_NAME":"Nebraska","NAMELSAD":"Seward County","STUSPS":"NE","GEOIDFQ":"0500000US31159","COUNTYFP":"159","STATEFP":"31","GEOID":"31159","ALAND":"1479997498","NAME":"Seward"}},{"type":"Feature","geometry":{"coordinates":[[[-102.792110939839,43.0000362357704],[-102.773369,42.785265],[-102.773366,42.439922],[-102.749611,42.430454],[-102.742269,42.092388],[-102.697835,42.004843],[-102.677582,42.005282],[-102.06665,42.009195],[-102.008562,42.008901],[-102.006428,42.096227],[-102.038169,42.443307],[-102.066905,42.78549],[-102.082548043072,42.99914064039],[-102.40864,42.999626],[-102.792110939839,43.0000362357704]]],"type":"Polygon"},"properties":{"AWATER":"76575663","COUNTYNS":"00835902","LSAD":"06","STATE_NAME":"Nebraska","NAMELSAD":"Sheridan County","STUSPS":"NE","GEOIDFQ":"0500000US31161","COUNTYFP":"161","STATEFP":"31","GEOID":"31161","ALAND":"6320009952","NAME":"Sheridan"}},{"type":"Feature","geometry":{"coordinates":[[[-99.203261,41.39414],[-99.207564,41.047003],[-98.748526,41.04664],[-98.74433,41.394178],[-98.751558,41.394084],[-99.203261,41.39414]]],"type":"Polygon"},"properties":{"AWATER":"14937776","COUNTYNS":"00835903","LSAD":"06","STATE_NAME":"Nebraska","NAMELSAD":"Sherman County","STUSPS":"NE","GEOIDFQ":"0500000US31163","COUNTYFP":"163","STATEFP":"31","GEOID":"31163","ALAND":"1465613588","NAME":"Sherman"}},{"type":"Feature","geometry":{"coordinates":[[[-104.053127,43.000585],[-104.052586,42.630917],[-104.052662191568,42.6117663005415],[-104.053107,42.499964],[-104.052793,42.249962],[-104.052729,42.016318],[-104.052762109856,42.0017302658048],[-103.401522,42.003537],[-103.401591,42.090411],[-103.444108,42.090708],[-103.444278,42.437275],[-103.48001,42.437267],[-103.480335,42.784908],[-103.505099916029,43.0007588128236],[-104.053127,43.000585]]],"type":"Polygon"},"properties":{"AWATER":"1662499","COUNTYNS":"00835904","LSAD":"06","STATE_NAME":"Nebraska","NAMELSAD":"Sioux County","STUSPS":"NE","GEOIDFQ":"0500000US31165","COUNTYFP":"165","STATEFP":"31","GEOID":"31165","ALAND":"5352788419","NAME":"Sioux"}},{"type":"Feature","geometry":{"coordinates":[[[-97.368404,42.090922],[-97.36807,41.743207],[-97.252425,41.743085],[-97.019911,41.74298],[-97.019359,42.090577],[-97.368404,42.090922]]],"type":"Polygon"},"properties":{"AWATER":"8725894","COUNTYNS":"00835905","LSAD":"06","STATE_NAME":"Nebraska","NAMELSAD":"Stanton County","STUSPS":"NE","GEOIDFQ":"0500000US31167","COUNTYFP":"167","STATEFP":"31","GEOID":"31167","ALAND":"1107564314","NAME":"Stanton"}},{"type":"Feature","geometry":{"coordinates":[[[-97.820816,40.350545],[-97.8215008122752,40.0021868820889],[-97.777155,40.002167],[-97.415833,40.002001],[-97.369199035315,40.0019393057605],[-97.368688,40.350392],[-97.820816,40.350545]]],"type":"Polygon"},"properties":{"AWATER":"3070762","COUNTYNS":"00835906","LSAD":"06","STATE_NAME":"Nebraska","NAMELSAD":"Thayer County","STUSPS":"NE","GEOIDFQ":"0500000US31169","COUNTYFP":"169","STATEFP":"31","GEOID":"31169","ALAND":"1486107863","NAME":"Thayer"}},{"type":"Feature","geometry":{"coordinates":[[[-100.846129,42.088166],[-100.842459,41.740404],[-100.711409,41.739759],[-100.265474,41.739856],[-100.267622,42.086147],[-100.846129,42.088166]]],"type":"Polygon"},"properties":{"AWATER":"2087569","COUNTYNS":"00835907","LSAD":"06","STATE_NAME":"Nebraska","NAMELSAD":"Thomas County","STUSPS":"NE","GEOIDFQ":"0500000US31171","COUNTYFP":"171","STATEFP":"31","GEOID":"31171","ALAND":"1845505749","NAME":"Thomas"}},{"type":"Feature","geometry":{"coordinates":[[[-96.822497,42.264292],[-96.82367,42.090411],[-96.555511,42.089957],[-96.554866,42.015875],[-96.309645,42.015187],[-96.272877,42.047238],[-96.2689,42.11359],[-96.347752,42.166806],[-96.3372160947059,42.2148495068956],[-96.336323,42.218922],[-96.336003,42.264806],[-96.351957192496,42.2808947045433],[-96.375274,42.276359],[-96.726661,42.278005],[-96.73778,42.264104],[-96.822497,42.264292]]],"type":"Polygon"},"properties":{"AWATER":"6437925","COUNTYNS":"00835908","LSAD":"06","STATE_NAME":"Nebraska","NAMELSAD":"Thurston County","STUSPS":"NE","GEOIDFQ":"0500000US31173","COUNTYFP":"173","STATEFP":"31","GEOID":"31173","ALAND":"1019398006","NAME":"Thurston"}},{"type":"Feature","geometry":{"coordinates":[[[-99.212016,41.740613],[-99.212394,41.408678],[-99.203261,41.39414],[-98.751558,41.394084],[-98.752225,41.740372],[-98.759133,41.740382],[-99.212016,41.740613]]],"type":"Polygon"},"properties":{"AWATER":"6133639","COUNTYNS":"00835909","LSAD":"06","STATE_NAME":"Nebraska","NAMELSAD":"Valley County","STUSPS":"NE","GEOIDFQ":"0500000US31175","COUNTYFP":"175","STATEFP":"31","GEOID":"31175","ALAND":"1471346018","NAME":"Valley"}},{"type":"Feature","geometry":{"coordinates":[[[-96.444785,41.683633],[-96.434792,41.494928],[-96.329012,41.393136],[-95.945045,41.393095],[-95.9273362423201,41.3899879374596],[-95.922529,41.455766],[-95.982962,41.469778],[-95.9940203930119,41.5068906409415],[-96.005079,41.544004],[-96.080493,41.528199],[-96.09182,41.561086],[-96.118105,41.613495],[-96.111483,41.668548],[-96.1079378717465,41.6765089897621],[-96.134276,41.68273],[-96.444785,41.683633]]],"type":"Polygon"},"properties":{"AWATER":"8462656","COUNTYNS":"00835910","LSAD":"06","STATE_NAME":"Nebraska","NAMELSAD":"Washington County","STUSPS":"NE","GEOIDFQ":"0500000US31177","COUNTYFP":"177","STATEFP":"31","GEOID":"31177","ALAND":"1009915283","NAME":"Washington"}},{"type":"Feature","geometry":{"coordinates":[[[-97.367724,42.351861],[-97.368404,42.090922],[-97.019359,42.090577],[-96.82367,42.090411],[-96.822497,42.264292],[-97.01773,42.264453],[-97.017789,42.351347],[-97.367724,42.351861]]],"type":"Polygon"},"properties":{"AWATER":"1084985","COUNTYNS":"00835911","LSAD":"06","STATE_NAME":"Nebraska","NAMELSAD":"Wayne County","STUSPS":"NE","GEOIDFQ":"0500000US31179","COUNTYFP":"179","STATEFP":"31","GEOID":"31179","ALAND":"1147146590","NAME":"Wayne"}},{"type":"Feature","geometry":{"coordinates":[[[-98.726827,40.350398],[-98.726372963939,40.0023362731669],[-98.613755,40.0024],[-98.5044549836368,40.002379876736],[-98.2740170597529,40.0023374507299],[-98.273571,40.350359],[-98.27809,40.350347],[-98.723948,40.350391],[-98.726827,40.350398]]],"type":"Polygon"},"properties":{"AWATER":"337241","COUNTYNS":"00835912","LSAD":"06","STATE_NAME":"Nebraska","NAMELSAD":"Webster County","STUSPS":"NE","GEOIDFQ":"0500000US31181","COUNTYFP":"181","STATEFP":"31","GEOID":"31181","ALAND":"1489017942","NAME":"Webster"}},{"type":"Feature","geometry":{"coordinates":[[[-98.761155,42.088518],[-98.759133,41.740382],[-98.752225,41.740372],[-98.29576,41.741178],[-98.295602,41.914954],[-98.295421,42.070495],[-98.300592,42.088853],[-98.761155,42.088518]]],"type":"Polygon"},"properties":{"AWATER":"1059454","COUNTYNS":"00835913","LSAD":"06","STATE_NAME":"Nebraska","NAMELSAD":"Wheeler County","STUSPS":"NE","GEOIDFQ":"0500000US31183","COUNTYFP":"183","STATEFP":"31","GEOID":"31183","ALAND":"1489717918","NAME":"Wheeler"}},{"type":"Feature","geometry":{"coordinates":[[[-97.826287,41.046581],[-97.825723,40.698555],[-97.82478,40.698537],[-97.368401,40.698625],[-97.368118,41.046947],[-97.826287,41.046581]]],"type":"Polygon"},"properties":{"AWATER":"8579992","COUNTYNS":"00835914","LSAD":"06","STATE_NAME":"Nebraska","NAMELSAD":"York County","STUSPS":"NE","GEOIDFQ":"0500000US31185","COUNTYFP":"185","STATEFP":"31","GEOID":"31185","ALAND":"1482809122","NAME":"York"}}],"type":"FeatureCollection"}
